NORAD_CAT_ID,OBJECT_NAME,OBJECT_TYPE,EPOCH,MEAN_MOTION,ECCENTRICITY,INCLINATION,RA_OF_ASC_NODE,ARG_OF_PERICENTER,MEAN_ANOMALY,BSTAR,MEAN_MOTION_DOT,MEAN_MOTION_DDOT,TLE_LINE0,TLE_LINE1,TLE_LINE2,SEMIMAJOR_AXIS,PERIOD,APOGEE,PERIGEE,DECAYED
53910.0,STARLINK-5056,PAYLOAD,2024-02-21 08:48:34,15.08847294,0.0001832,53.2163,69.0468,93.0461,267.0741,0.000217,3.168e-05,0.0,0 STARLINK-5056,1 53910U 22119AA  24052.36706823  .00003168  00000-0  21700-3 0  9992,2 53910  53.2163  69.0468 0001832  93.0461 267.0741 15.08847294 79001,6917.858,95.437,540.99,538.456,0.0
53910.0,STARLINK-5056,PAYLOAD,2024-02-21 18:20:53,15.0884198,0.0001665,53.2148,67.261,88.842,271.2763,0.00013876,1.921e-05,0.0,0 STARLINK-5056,1 53910U 22119AA  24052.76450942  .00001921  00000-0  13876-3 0  9994,2 53910  53.2148  67.2610 0001665  88.8420 271.2763 15.08841980 78640,6917.874,95.437,540.891,538.588,0.0
53910.0,STARLINK-5056,PAYLOAD,2024-02-22 10:14:45,15.08842059,0.0001781,53.2169,64.2836,95.9347,264.1848,6.7615e-05,7.88e-06,0.0,0 STARLINK-5056,1 53910U 22119AA  24053.42691018  .00000788  00000-0  67615-4 0  9990,2 53910  53.2169  64.2836 0001781  95.9347 264.1848 15.08842059 79167,6917.874,95.437,540.971,538.507,0.0
53910.0,STARLINK-5056,PAYLOAD,2024-02-22 19:47:04,15.08839839,0.0001765,53.2159,62.4999,96.0449,264.0744,8.2419e-05,1.024e-05,0.0,0 STARLINK-5056,1 53910U 22119AA  24053.82435263  .00001024  00000-0  82419-4 0  9995,2 53910  53.2159  62.4999 0001765  96.0449 264.0744 15.08839839 78809,6917.881,95.438,540.967,538.525,0.0
53910.0,STARLINK-5056,PAYLOAD,2024-02-23 06:54:45,15.08836101,0.000116,53.2161,60.4186,100.9589,259.1533,0.00017715,2.532e-05,0.0,0 STARLINK-5056,1 53910U 22119AA  24054.28803199  .00002532  00000-0  17715-3 0  9994,2 53910  53.2161  60.4186 0001160 100.9589 259.1533 15.08836101 79291,6917.892,95.438,540.56,538.955,0.0
53910.0,STARLINK-5056,PAYLOAD,2024-02-24 03:34:46,15.08838734,0.0001587,53.2163,56.5523,97.1263,262.9909,9.8132e-05,1.274e-05,0.0,0 STARLINK-5056,1 53910U 22119AA  24055.14915224  .00001274  00000-0  98132-4 0  9998,2 53910  53.2163  56.5523 0001587  97.1263 262.9909 15.08838734 79005,6917.884,95.438,540.847,538.651,0.0
53910.0,STARLINK-5056,PAYLOAD,2024-02-24 06:45:32,15.08840754,0.0001541,53.2163,55.9577,97.7623,262.3544,0.00011735,1.58e-05,0.0,0 STARLINK-5056,1 53910U 22119AA  24055.28163114  .00001580  00000-0  11735-3 0  9999,2 53910  53.2163  55.9577 0001541  97.7623 262.3544 15.08840754 79445,6917.878,95.438,540.809,538.677,0.0
53910.0,STARLINK-5056,PAYLOAD,2024-02-25 05:00:57,15.08823415,0.0001427,53.2178,51.7955,100.8052,259.3101,0.00034955,5.277e-05,0.0,0 STARLINK-5056,1 53910U 22119AA  24056.20900024  .00005277  00000-0  34955-3 0  9997,2 53910  53.2178  51.7955 0001427 100.8052 259.3101 15.08823415 79169,6917.931,95.439,540.783,538.809,0.0
53910.0,STARLINK-5056,PAYLOAD,2024-02-25 09:47:05,15.08849168,0.000158,53.2175,50.9047,94.9164,265.2009,0.00010146,1.327e-05,0.0,0 STARLINK-5056,1 53910U 22119AA  24056.40770720  .00001327  00000-0  10146-3 0  9995,2 53910  53.2175  50.9047 0001580  94.9164 265.2009 15.08849168 79195,6917.852,95.437,540.81,538.624,0.0
53910.0,STARLINK-5056,PAYLOAD,2024-02-25 16:08:38,15.08843762,0.0001559,53.2173,49.7143,92.7577,267.3594,0.00012097,1.638e-05,0.0,0 STARLINK-5056,1 53910U 22119AA  24056.67267019  .00001638  00000-0  12097-3 0  9998,2 53910  53.2173  49.7143 0001559  92.7577 267.3594 15.08843762 79653,6917.869,95.437,540.812,538.655,0.0
53910.0,STARLINK-5056,PAYLOAD,2024-02-26 03:16:20,15.08840964,0.0001745,53.2187,47.6373,105.4617,254.6568,0.00011122,1.482e-05,0.0,0 STARLINK-5056,1 53910U 22119AA  24057.13635291  .00001482  00000-0  11122-3 0  9996,2 53910  53.2187  47.6373 0001745 105.4617 254.6568 15.08840964 79307,6917.877,95.437,540.95,538.535,0.0
53910.0,STARLINK-5056,PAYLOAD,2024-02-26 06:27:07,15.08842517,0.0001579,53.2181,47.0385,96.5782,263.539,9.0572e-05,1.154e-05,0.0,0 STARLINK-5056,1 53910U 22119AA  24057.26883190  .00001154  00000-0  90572-4 0  9996,2 53910  53.2181  47.0385 0001579  96.5782 263.5390 15.08842517 79742,6917.873,95.437,540.83,538.645,0.0
53910.0,STARLINK-5056,PAYLOAD,2024-02-26 22:20:58,15.08839641,0.0001613,53.2181,44.0657,97.0067,263.1108,-1.1605e-05,-4.73e-06,0.0,0 STARLINK-5056,1 53910U 22119AA  24057.93123802 -.00000473  00000-0 -11605-4 0  9992,2 53910  53.2181  44.0657 0001613  97.0067 263.1108 15.08839641 79840,6917.881,95.438,540.862,538.631,0.0
53910.0,STARLINK-5056,PAYLOAD,2024-02-27 03:07:08,15.0883822,0.0001619,53.2183,43.1731,96.6542,263.4634,-2.9094e-05,-7.51e-06,0.0,0 STARLINK-5056,1 53910U 22119AA  24058.12995960 -.00000751  00000-0 -29094-4 0  9996,2 53910  53.2183  43.1731 0001619  96.6542 263.4634 15.08838220 79450,6917.886,95.438,540.871,538.631,0.0
53910.0,STARLINK-5056,PAYLOAD,2024-02-27 09:28:40,15.08840154,0.0001568,53.2182,41.9826,90.9337,269.1834,-1.9435e-05,-5.97e-06,0.0,0 STARLINK-5056,1 53910U 22119AA  24058.39491707 -.00000597  00000-0 -19435-4 0  9991,2 53910  53.2182  41.9826 0001568  90.9337 269.1834 15.08840154 79917,6917.88,95.438,540.83,538.66,0.0
53910.0,STARLINK-5056,PAYLOAD,2024-02-27 22:11:46,15.08835577,0.0001562,53.2189,39.6043,85.9574,274.1597,2.3203e-05,8.1e-07,0.0,0 STARLINK-5056,1 53910U 22119AA  24058.92484068  .00000081  00000-0  23203-4 0  9996,2 53910  53.2189  39.6043 0001562  85.9574 274.1597 15.08835577 79993,6917.894,95.438,540.839,538.678,0.0
53910.0,STARLINK-5056,PAYLOAD,2024-02-28 06:08:41,15.08847829,0.0001581,53.2182,38.1167,86.8624,273.2549,6.3028e-05,7.15e-06,0.0,0 STARLINK-5056,1 53910U 22119AA  24059.25603203  .00000715  00000-0  63028-4 0  9990,2 53910  53.2182  38.1167 0001581  86.8624 273.2549 15.08847829 79624,6917.856,95.437,540.815,538.628,0.0
53910.0,STARLINK-5056,PAYLOAD,2024-02-28 15:41:00,15.08837595,0.0001725,53.2187,36.3358,84.1579,275.961,7.3773e-05,8.86e-06,0.0,0 STARLINK-5056,1 53910U 22119AA  24059.65347878  .00000886  00000-0  73773-4 0  9994,2 53910  53.2187  36.3358 0001725  84.1579 275.9610 15.08837595 79684,6917.888,95.438,540.946,538.559,0.0
53910.0,STARLINK-5056,PAYLOAD,2024-02-28 22:02:33,15.0883052,0.0001798,53.2182,35.1484,71.3149,288.8039,0.00011956,1.615e-05,0.0,0 STARLINK-5056,1 53910U 22119AA  24059.91844273  .00001615  00000-0  11956-3 0  9999,2 53910  53.2182  35.1484 0001798  71.3149 288.8039 15.08830520 80149,6917.909,95.438,541.018,538.531,0.0
53910.0,STARLINK-5056,PAYLOAD,2024-02-29 04:24:06,15.08831617,0.0001323,53.2184,33.9541,85.6457,274.4687,2.0641e-05,4.1e-07,0.0,0 STARLINK-5056,1 53910U 22119AA  24060.18340476  .00000041  00000-0  20641-4 0  9990,2 53910  53.2184  33.9541 0001323  85.6457 274.4687 15.08831617 79769,6917.906,95.438,540.686,538.856,0.0
53910.0,STARLINK-5056,PAYLOAD,2024-02-29 07:34:52,15.08838547,0.0001511,53.2173,33.3585,87.0793,273.0373,7.4071e-05,8.91e-06,0.0,0 STARLINK-5056,1 53910U 22119AA  24060.31587963  .00000891  00000-0  74071-4 0  9998,2 53910  53.2173  33.3585 0001511  87.0793 273.0373 15.08838547 79785,6917.885,95.438,540.795,538.705,0.0
53910.0,STARLINK-5056,PAYLOAD,2024-02-29 15:31:47,15.08841219,0.0001575,53.2162,31.8745,79.8761,280.2408,2.8474e-05,1.65e-06,0.0,0 STARLINK-5056,1 53910U 22119AA  24060.64707964  .00000165  00000-0  28474-4 0  9999,2 53910  53.2162  31.8745 0001575  79.8761 280.2408 15.08841219 80251,6917.877,95.437,540.831,538.652,0.0
53910.0,STARLINK-5056,PAYLOAD,2024-03-01 07:25:38,15.0885096,0.0001513,53.2172,28.8994,92.4811,267.6354,4.779e-05,4.73e-06,0.0,0 STARLINK-5056,1 53910U 22119AA  24061.30947260  .00000473  00000-0  47790-4 0  9992,2 53910  53.2172  28.8994 0001513  92.4811 267.6354 15.08850960 79938,6917.847,95.437,540.759,538.665,0.0
53910.0,STARLINK-5056,PAYLOAD,2024-03-01 15:22:34,15.08848019,0.0001554,53.2179,27.411,92.9604,267.1566,5.9639e-05,6.61e-06,0.0,0 STARLINK-5056,1 53910U 22119AA  24061.64067260  .00000661  00000-0  59639-4 0  9996,2 53910  53.2179  27.4110 0001554  92.9604 267.1566 15.08848019 80406,6917.856,95.437,540.796,538.646,0.0
53910.0,STARLINK-5056,PAYLOAD,2024-03-02 04:05:40,15.08795159,0.000184,53.2183,25.0322,97.6622,262.4579,0.00081191,0.00012641,0.0,0 STARLINK-5056,1 53910U 22119AA  24062.17060815  .00012641  00000-0  81191-3 0  9992,2 53910  53.2183  25.0322 0001840  97.6622 262.4579 15.08795159 80060,6918.017,95.44,541.155,538.61,0.0
53910.0,STARLINK-5056,PAYLOAD,2024-03-03 03:56:26,15.08839463,0.0001631,53.2189,20.5704,96.2091,263.9087,-2.8008e-05,-7.34e-06,0.0,0 STARLINK-5056,1 53910U 22119AA  24063.16419998 -.00000734  00000-0 -28008-4 0  9993,2 53910  53.2189  20.5704 0001631  96.2091 263.9087 15.08839463 80217,6917.882,95.438,540.875,538.619,0.0
53910.0,STARLINK-5056,PAYLOAD,2024-03-03 07:07:13,15.08840054,0.0001627,53.2189,19.9755,97.1176,263.0001,-2.2087e-05,-6.4e-06,0.0,0 STARLINK-5056,1 53910U 22119AA  24063.29667942 -.00000640  00000-0 -22087-4 0  9998,2 53910  53.2189  19.9755 0001627  97.1176 263.0001 15.08840054 80657,6917.88,95.438,540.871,538.62,0.0
53910.0,STARLINK-5056,PAYLOAD,2024-03-04 03:47:12,15.08853291,0.0001624,53.2194,16.1096,97.0755,263.0421,0.00014176,1.97e-05,0.0,0 STARLINK-5056,1 53910U 22119AA  24064.15778521  .00001970  00000-0  14176-3 0  9994,2 53910  53.2194  16.1096 0001624  97.0755 263.0421 15.08853291 80360,6917.84,95.437,540.828,538.581,0.0
53910.0,STARLINK-5056,PAYLOAD,2024-03-04 06:57:58,15.08853604,0.0001623,53.2194,15.5145,97.5496,262.5681,0.00013969,1.937e-05,0.0,0 STARLINK-5056,1 53910U 22119AA  24064.29026401  .00001937  00000-0  13969-3 0  9994,2 53910  53.2194  15.5145 0001623  97.5496 262.5681 15.08853604 80803,6917.839,95.437,540.827,538.581,0.0
53910.0,STARLINK-5056,PAYLOAD,2024-03-04 13:19:32,15.08846341,0.0002225,53.2199,14.3214,55.9207,304.1996,4.5745e-05,4.4e-06,0.0,0 STARLINK-5056,1 53910U 22119AA  24064.55523226  .00000440  00000-0  45745-4 0  9996,2 53910  53.2199  14.3214 0002225  55.9207 304.1996 15.08846341 80429,6917.861,95.437,541.265,538.187,0.0
